JILIN-1                 
1 40961U 15057D   26196.98549050  .00000358  00000+0  56022-4 0  9996
2 40961  97.6520 194.9244 0017298 164.3785 195.7964 14.78202028579865
JILIN-1 03              
1 41914U 17002B   26196.96975615  .00008187  00000+0  19229-3 0  9990
2 41914  97.1947 203.6621 0007856  77.3706 282.8420 15.42243783526293
JILIN-1 04              
1 43022U 17074A   26196.94849810  .00008379  00000+0  19118-3 0  9996
2 43022  97.4883 307.3449 0005240  98.1303 262.0539 15.43144043478709
JILIN-1 05              
1 43023U 17074B   26196.95159142  .00004677  00000+0  14330-3 0  9998
2 43023  97.4886 303.5053 0006489 122.5637 237.6233 15.34292556478410
JILIN-1 06              
1 43024U 17074C   26196.92763878  .00003386  00000+0  10533-3 0  9990
2 43024  97.4811 300.4519 0008126 131.8896 228.3041 15.34000972478246
JILIN-1 07              
1 43159U 18008E   26196.90726808  .00004865  00000+0  14471-3 0  9995
2 43159  97.1763 216.0775 0006667 325.0520  35.0285 15.35171324469405
JILIN-1 08              
1 43160U 18008F   26196.92784190  .00003278  00000+0  10191-3 0  9999
2 43160  97.1801 215.3813 0005230 349.8055  10.3082 15.34014983469358
JILIN-1 09              
1 43943U 19005B   26196.93634137  .00002392  00000+0  11185-3 0  9992
2 43943  97.4748 291.6583 0002281  34.8507 325.2877 15.20744454413512
JILIN-1 10              
1 43946U 19005E   26196.91546799  .00003192  00000+0  12690-3 0  9990
2 43946  97.4800 295.7266 0008638 167.3869 192.7587 15.26011384413691
